H1 CPF  1  DLR 2022 02 13 10  5442 technosat            
H2  1704205 6203    42829 2022 02 13 00 00 00 2022 02 20 00 00 00    60 1 1  0 0 0
H9
10 0 59628      0.000000  0       -765773.819       -481952.909      -6928149.972
10 0 59628     60.000000  0      -1004542.583        -93550.904      -6913303.551
10 0 59628    120.000000  0      -1235717.468        297296.881      -6869452.520
10 0 59628    180.000000  0      -1458320.193        688891.476      -6796772.484
10 0 59628    240.000000  0      -1671422.164       1079521.320      -6695558.170
10 0 59628    300.000000  0      -1874148.239       1467469.520      -6566222.402
10 0 59628    360.000000  0      -2065680.277       1851021.105      -6409294.711
10 0 59628    420.000000  0      -2245260.466       2228470.433      -6225419.608
10 0 59628    480.000000  0      -2412194.390       2598128.714      -6015354.295
10 0 59628    540.000000  0      -2565853.725       2958331.470      -5779965.916
10 0 59628    600.000000  0      -2705678.689       3307445.986      -5520228.455
10 0 59628    660.000000  0      -2831180.220       3643878.776      -5237219.159
10 0 59628    720.000000  0      -2941941.822       3966082.971      -4932114.467
10 0 59628    780.000000  0      -3037621.062       4272565.585      -4606185.486
10 0 59628    840.000000  0      -3117950.712       4561894.622      -4260793.013
10 0 59628    900.000000  0      -3182739.515       4832705.979      -3897382.132
10 0 59628    960.000000  0      -3231872.562       5083710.055      -3517476.412
10 0 59628   1020.000000  0      -3265311.332       5313698.147      -3122671.858
10 0 59628   1080.000000  0      -3283093.440       5521548.637      -2714630.405
10 0 59628   1140.000000  0      -3285331.958       5706232.817      -2295073.030
10 0 59628   1200.000000  0      -3272214.358       5866820.352      -1865772.512
10 0 59628   1260.000000  0      -3244001.023       6002484.321      -1428545.855
10 0 59628   1320.000000  0      -3201023.374       6112505.702       -985246.452
10 0 59628   1380.000000  0      -3143681.698       6196277.315       -537756.142
10 0 59628   1440.000000  0      -3072442.713       6253307.461        -87977.137
10 0 59628   1500.000000  0      -2987836.753       6283223.027        362176.437
10 0 59628   1560.000000  0      -2890454.541       6285771.902        810787.103
10 0 59628   1620.000000  0      -2780943.609       6260824.765       1255942.621
10 0 59628   1680.000000  0      -2660004.389       6208376.198       1695744.522
10 0 59628   1740.000000  0      -2528386.108       6128545.188       2128316.538
10 0 59628   1800.000000  0      -2386882.459       6021575.016       2551812.935
10 0 59628   1860.000000  0      -2236327.061       5887832.530       2964426.665
10 0 59628   1920.000000  0      -2077588.755       5727806.839       3364397.324
10 0 59628   1980.000000  0      -1911566.767       5542107.405       3750018.913
10 0 59628   2040.000000  0      -1739185.737       5331461.516       4119647.321
10 0 59628   2100.000000  0      -1561390.682       5096711.209       4471707.487
10 0 59628   2160.000000  0      -1379141.861       4838809.640       4804700.277
10 0 59628   2220.000000  0      -1193409.547       4558816.861       5117208.925
10 0 59628   2280.000000  0      -1005168.897       4257895.158       5407905.005
10 0 59628   2340.000000  0       -815394.910       3937303.942       5675554.043
10 0 59628   2400.000000  0       -625057.416       3598394.169       5919020.744
10 0 59628   2460.000000  0       -435116.111       3242602.283       6137273.710
10 0 59628   2520.000000  0       -246515.731       2871443.849       6329389.588
10 0 59628   2580.000000  0        -60181.411       2486506.899       6494556.829
10 0 59628   2640.000000  0        122985.850       2089444.955       6632078.993
10 0 59628   2700.000000  0        302113.546       1681969.690       6741377.554
10 0 59628   2760.000000  0        476361.809       1265843.339       6821994.127
10 0 59628   2820.000000  0        644927.319        842870.975       6873592.168
10 0 59628   2880.000000  0        807046.987        414892.631       6895958.247
10 0 59628   2940.000000  0        962001.407        -16224.736       6889002.865
10 0 59628   3000.000000  0       1109118.023       -448595.480       6852760.800
10 0 59628   3060.000000  0       1247774.056       -880323.637       6787390.867
10 0 59628   3120.000000  0       1377399.152      -1309511.257       6693175.131
10 0 59628   3180.000000  0       1497477.715      -1734266.773       6570517.752
10 0 59628   3240.000000  0       1607550.960      -2152713.444       6419943.282
10 0 59628   3300.000000  0       1707218.660      -2562997.727       6242094.439
10 0 59628   3360.000000  0       1796140.574      -2963297.578       6037729.429
10 0 59628   3420.000000  0       1874037.550      -3351830.671       5807718.758
10 0 59628   3480.000000  0       1940692.312      -3726862.429       5553041.546
10 0 59628   3540.000000  0       1995949.908      -4086713.844       5274781.406
10 0 59628   3600.000000  0       2039717.864      -4429769.085       4974121.929
10 0 59628   3660.000000  0       2071966.038      -4754482.915       4652341.764
10 0 59628   3720.000000  0       2092726.173      -5059387.895       4310809.269
10 0 59628   3780.000000  0       2102091.116      -5343101.264       3950976.642
10 0 59628   3840.000000  0       2100213.634      -5604331.374       3574373.670
10 0 59628   3900.000000  0       2087304.915      -5841883.739       3182601.181
10 0 59628   3960.000000  0       2063632.795      -6054666.658       2777324.155
10 0 59628   4020.000000  0       2029519.723      -6241696.353       2360264.536
10 0 59628   4080.000000  0       1985340.456      -6402101.593       1933193.808
10 0 59628   4140.000000  0       1931519.497      -6535127.891       1497925.400
10 0 59628   4200.000000  0       1868528.217      -6640141.173       1056306.764
10 0 59628   4260.000000  0       1796881.729      -6716630.765        610211.371
10 0 59628   4320.000000  0       1717135.611      -6764211.950        161530.648
10 0 59628   4380.000000  0       1629882.411      -6782627.970       -287834.359
10 0 59628   4440.000000  0       1535747.882      -6771751.222       -735981.383
10 0 59628   4500.000000  0       1435387.098      -6731583.694      -1181015.207
10 0 59628   4560.000000  0       1329480.473      -6662256.907      -1621055.714
10 0 59628   4620.000000  0       1218729.619      -6564031.361      -2054245.955
10 0 59628   4680.000000  0       1103853.151      -6437295.224      -2478760.104
10 0 59628   4740.000000  0        985582.573      -6282562.430      -2892811.153
10 0 59628   4800.000000  0        864658.079      -6100470.276      -3294658.391
10 0 59628   4860.000000  0        741824.335      -5891776.478      -3682614.661
10 0 59628   4920.000000  0        617826.269      -5657355.642      -4055053.335
10 0 59628   4980.000000  0        493404.905      -5398195.235      -4410414.949
10 0 59628   5040.000000  0        369293.289      -5115391.088      -4747213.473
10 0 59628   5100.000000  0        246212.518      -4810142.492      -5064042.237
10 0 59628   5160.000000  0        124867.868      -4483746.864      -5359579.528
10 0 59628   5220.000000  0          5945.064      -4137594.004      -5632593.781
10 0 59628   5280.000000  0       -109893.307      -3773159.989      -5881948.353
10 0 59628   5340.000000  0       -222011.203      -3392000.765      -6106605.869
10 0 59628   5400.000000  0       -329802.353      -2995745.452      -6305632.189
10 0 59628   5460.000000  0       -432693.314      -2586089.375      -6478199.942
10 0 59628   5520.000000  0       -530146.301      -2164786.855      -6623591.617
10 0 59628   5580.000000  0       -621661.814      -1733643.830      -6741202.226
10 0 59628   5640.000000  0       -706781.047      -1294510.308      -6830541.611
10 0 59628   5700.000000  0       -785088.049       -849272.602      -6891236.315
10 0 59628   5760.000000  0       -856211.651       -399845.423      -6923030.996
10 0 59628   5820.000000  0       -919827.152         51836.096      -6925789.341
10 0 59628   5880.000000  0       -975657.768        503824.376      -6899494.627
10 0 59628   5940.000000  0      -1023475.814        954167.510      -6844249.937
10 0 59628   6000.000000  0      -1063103.635       1400917.478      -6760277.843
10 0 59628   6060.000000  0      -1094414.289       1842138.254      -6647919.653
10 0 59628   6120.000000  0      -1117331.943       2275913.945      -6507634.326
10 0 59628   6180.000000  0      -1131832.005       2700356.953      -6339996.978
10 0 59628   6240.000000  0      -1137941.018       3113616.129      -6145696.898
10 0 59628   6300.000000  0      -1135736.288       3513884.803      -5925535.039
10 0 59628   6360.000000  0      -1125345.195       3899408.639      -5680421.127
10 0 59628   6420.000000  0      -1106944.263       4268493.395      -5411370.378
10 0 59628   6480.000000  0      -1080757.992       4619512.541      -5119499.721
10 0 59628   6540.000000  0      -1047057.416       4950914.657      -4806023.559
10 0 59628   6600.000000  0      -1006158.398       5261230.569      -4472249.071
10 0 59628   6660.000000  0       -958419.678       5549080.172      -4119571.088
10 0 59628   6720.000000  0       -904240.658       5813178.922      -3749466.542
10 0 59628   6780.000000  0       -844058.961       6052343.936      -3363488.542
10 0 59628   6840.000000  0       -778347.765       6265499.721      -2963260.094
10 0 59628   6900.000000  0       -707612.909       6451683.521      -2550467.416
10 0 59628   6960.000000  0       -632389.801       6610050.114      -2126852.854
10 0 59628   7020.000000  0       -553240.184       6739876.084      -1694207.533
10 0 59628   7080.000000  0       -470748.703       6840563.557      -1254363.736
10 0 59628   7140.000000  0       -385519.303       6911643.396       -809187.032
99
